{"fetched_at":"2026-07-15T17:46:49.740Z","source":"https://celestrak.org/NORAD/elements/gp.php?GROUP=qianfan&FORMAT=JSON","constellation":"qianfan","records":[{"OBJECT_NAME":"QIANFAN-17","OBJECT_ID":"2024-140S","EPOCH":"2026-07-15T05:18:00.683136","CLASSIFICATION_TYPE":"U","MEAN_MOTION":13.51016233,"ECCENTRICITY":0.0012865,"INCLINATION":88.9745,"RA_OF_ASC_NODE":277.2041,"ARG_OF_PERICENTER":310.9587,"MEAN_ANOMALY":49.045,"EPHEMERIS_TYPE":0,"NORAD_CAT_ID":60395,"ELEMENT_SET_NO":999,"REV_AT_EPOCH":9709,"BSTAR":0.00013568,"MEAN_MOTION_DOT":0.000001,"MEAN_MOTION_DDOT":0},{"OBJECT_NAME":"QIANFAN-18","OBJECT_ID":"2024-140T","EPOCH":"2026-07-15T04:48:20.996064","CLASSIFICATION_TYPE":"U","MEAN_MOTION":13.51015706,"ECCENTRICITY":0.0011934,"INCLINATION":88.9739,"RA_OF_ASC_NODE":276.7256,"ARG_OF_PERICENTER":290.7491,"MEAN_ANOMALY":69.2381,"EPHEMERIS_TYPE":0,"NORAD_CAT_ID":60396,"ELEMENT_SET_NO":999,"REV_AT_EPOCH":9648,"BSTAR":0.00012509,"MEAN_MOTION_DOT":9.3e-7,"MEAN_MOTION_DDOT":0},{"OBJECT_NAME":"QIANFAN-19","OBJECT_ID":"2024-185A","EPOCH":"2026-07-15T03:45:39.921120","CLASSIFICATION_TYPE":"U","MEAN_MOTION":14.1449403,"ECCENTRICITY":0.0006447,"INCLINATION":88.9813,"RA_OF_ASC_NODE":53.3732,"ARG_OF_PERICENTER":356.2754,"MEAN_ANOMALY":3.8384,"EPHEMERIS_TYPE":0,"NORAD_CAT_ID":61552,"ELEMENT_SET_NO":999,"REV_AT_EPOCH":9997,"BSTAR":0.00011534,"MEAN_MOTION_DOT":0.00000235,"MEAN_MOTION_DDOT":0},{"OBJECT_NAME":"QIANFAN-20","OBJECT_ID":"2024-185B","EPOCH":"2026-07-15T03:59:32.913024","CLASSIFICATION_TYPE":"U","MEAN_MOTION":14.09035864,"ECCENTRICITY":0.0006869,"INCLINATION":88.9809,"RA_OF_ASC_NODE":53.9086,"ARG_OF_PERICENTER":38.1727,"MEAN_ANOMALY":321.9942,"EPHEMERIS_TYPE":0,"NORAD_CAT_ID":61553,"ELEMENT_SET_NO":999,"REV_AT_EPOCH":9968,"BSTAR":0.00012943,"MEAN_MOTION_DOT":0.00000238,"MEAN_MOTION_DDOT":0},{"OBJECT_NAME":"QIANFAN-21","OBJECT_ID":"2024-185C","EPOCH":"2026-07-15T02:51:33.873984","CLASSIFICATION_TYPE":"U","MEAN_MOTION":14.22881152,"ECCENTRICITY":0.0011947,"INCLINATION":88.973,"RA_OF_ASC_NODE":51.8726,"ARG_OF_PERICENTER":35.3159,"MEAN_ANOMALY":324.8822,"EPHEMERIS_TYPE":0,"NORAD_CAT_ID":61554,"ELEMENT_SET_NO":999,"REV_AT_EPOCH":10045,"BSTAR":0.00013081,"MEAN_MOTION_DOT":0.00000308,"MEAN_MOTION_DDOT":0},{"OBJECT_NAME":"QIANFAN-22","OBJECT_ID":"2024-185D","EPOCH":"2026-07-15T03:39:53.042400","CLASSIFICATION_TYPE":"U","MEAN_MOTION":13.86407528,"ECCENTRICITY":0.0008491,"INCLINATION":88.9794,"RA_OF_ASC_NODE":55.757,"ARG_OF_PERICENTER":66.2508,"MEAN_ANOMALY":293.9552,"EPHEMERIS_TYPE":0,"NORAD_CAT_ID":61555,"ELEMENT_SET_NO":999,"REV_AT_EPOCH":9864,"BSTAR":0.00013859,"MEAN_MOTION_DOT":0.00000174,"MEAN_MOTION_DDOT":0},{"OBJECT_NAME":"QIANFAN-23","OBJECT_ID":"2024-185E","EPOCH":"2026-07-15T02:39:06.272064","CLASSIFICATION_TYPE":"U","MEAN_MOTION":14.16518296,"ECCENTRICITY":0.0007417,"INCLINATION":88.9806,"RA_OF_ASC_NODE":53.0874,"ARG_OF_PERICENTER":3.8274,"MEAN_ANOMALY":356.2969,"EPHEMERIS_TYPE":0,"NORAD_CAT_ID":61556,"ELEMENT_SET_NO":999,"REV_AT_EPOCH":10009,"BSTAR":0.00010811,"MEAN_MOTION_DOT":0.00000229,"MEAN_MOTION_DDOT":0},{"OBJECT_NAME":"QIANFAN-24","OBJECT_ID":"2024-185F","EPOCH":"2026-07-15T03:37:18.477984","CLASSIFICATION_TYPE":"U","MEAN_MOTION":14.24098156,"ECCENTRICITY":0.000819,"INCLINATION":88.9788,"RA_OF_ASC_NODE":52.1393,"ARG_OF_PERICENTER":332.3812,"MEAN_ANOMALY":27.6944,"EPHEMERIS_TYPE":0,"NORAD_CAT_ID":61557,"ELEMENT_SET_NO":999,"REV_AT_EPOCH":10053,"BSTAR":0.00013236,"MEAN_MOTION_DOT":0.00000319,"MEAN_MOTION_DDOT":0},{"OBJECT_NAME":"QIANFAN-25","OBJECT_ID":"2024-185G","EPOCH":"2026-07-15T03:38:10.095072","CLASSIFICATION_TYPE":"U","MEAN_MOTION":14.06095326,"ECCENTRICITY":0.0012742,"INCLINATION":88.9803,"RA_OF_ASC_NODE":53.9264,"ARG_OF_PERICENTER":33.6577,"MEAN_ANOMALY":326.5412,"EPHEMERIS_TYPE":0,"NORAD_CAT_ID":61558,"ELEMENT_SET_NO":999,"REV_AT_EPOCH":9963,"BSTAR":0.00011478,"MEAN_MOTION_DOT":0.00000202,"MEAN_MOTION_DDOT":0},{"OBJECT_NAME":"QIANFAN-26","OBJECT_ID":"2024-185H","EPOCH":"2026-07-15T02:56:37.485312","CLASSIFICATION_TYPE":"U","MEAN_MOTION":13.77923693,"ECCENTRICITY":0.0007903,"INCLINATION":88.9801,"RA_OF_ASC_NODE":56.6129,"ARG_OF_PERICENTER":83.663,"MEAN_ANOMALY":276.5436,"EPHEMERIS_TYPE":0,"NORAD_CAT_ID":61559,"ELEMENT_SET_NO":999,"REV_AT_EPOCH":9819,"BSTAR":0.00014241,"MEAN_MOTION_DOT":0.00000156,"MEAN_MOTION_DDOT":0},{"OBJECT_NAME":"QIANFAN-27","OBJECT_ID":"2024-185J","EPOCH":"2026-07-15T02:41:30.375168","CLASSIFICATION_TYPE":"U","MEAN_MOTION":14.2755678,"ECCENTRICITY":0.0005674,"INCLINATION":88.98,"RA_OF_ASC_NODE":51.8158,"ARG_OF_PERICENTER":321.9357,"MEAN_ANOMALY":38.1435,"EPHEMERIS_TYPE":0,"NORAD_CAT_ID":61560,"ELEMENT_SET_NO":999,"REV_AT_EPOCH":10074,"BSTAR":0.00011577,"MEAN_MOTION_DOT":0.00000299,"MEAN_MOTION_DDOT":0},{"OBJECT_NAME":"QIANFAN-28","OBJECT_ID":"2024-185K","EPOCH":"2026-07-15T02:47:17.765376","CLASSIFICATION_TYPE":"U","MEAN_MOTION":14.28418635,"ECCENTRICITY":0.000547,"INCLINATION":88.9817,"RA_OF_ASC_NODE":51.8287,"ARG_OF_PERICENTER":319.7707,"MEAN_ANOMALY":40.3082,"EPHEMERIS_TYPE":0,"NORAD_CAT_ID":61561,"ELEMENT_SET_NO":999,"REV_AT_EPOCH":10077,"BSTAR":0.00013015,"MEAN_MOTION_DOT":0.0000034,"MEAN_MOTION_DDOT":0},{"OBJECT_NAME":"QIANFAN-29","OBJECT_ID":"2024-185L","EPOCH":"2026-07-15T03:27:39.516768","CLASSIFICATION_TYPE":"U","MEAN_MOTION":13.51078682,"ECCENTRICITY":0.0010866,"INCLINATION":88.9775,"RA_OF_ASC_NODE":59.151,"ARG_OF_PERICENTER":141.2607,"MEAN_ANOMALY":218.9326,"EPHEMERIS_TYPE":0,"NORAD_CAT_ID":61562,"ELEMENT_SET_NO":999,"REV_AT_EPOCH":9674,"BSTAR":0.00014497,"MEAN_MOTION_DOT":0.00000106,"MEAN_MOTION_DDOT":0},{"OBJECT_NAME":"QIANFAN-30","OBJECT_ID":"2024-185M","EPOCH":"2026-07-15T03:11:58.752096","CLASSIFICATION_TYPE":"U","MEAN_MOTION":13.50061514,"ECCENTRICITY":0.0008928,"INCLINATION":88.9796,"RA_OF_ASC_NODE":58.7595,"ARG_OF_PERICENTER":126.544,"MEAN_ANOMALY":233.6534,"EPHEMERIS_TYPE":0,"NORAD_CAT_ID":61563,"ELEMENT_SET_NO":999,"REV_AT_EPOCH":9699,"BSTAR":0.000050604,"MEAN_MOTION_DOT":4.4e-7,"MEAN_MOTION_DDOT":0},{"OBJECT_NAME":"QIANFAN-31","OBJECT_ID":"2024-185N","EPOCH":"2026-07-15T04:02:37.665600","CLASSIFICATION_TYPE":"U","MEAN_MOTION":13.58046731,"ECCENTRICITY":0.0008731,"INCLINATION":88.9779,"RA_OF_ASC_NODE":58.2174,"ARG_OF_PERICENTER":114.8235,"MEAN_ANOMALY":245.3829,"EPHEMERIS_TYPE":0,"NORAD_CAT_ID":61564,"ELEMENT_SET_NO":999,"REV_AT_EPOCH":9726,"BSTAR":0.00015347,"MEAN_MOTION_DOT":0.00000123,"MEAN_MOTION_DDOT":0},{"OBJECT_NAME":"QIANFAN-32","OBJECT_ID":"2024-185P","EPOCH":"2026-07-15T03:10:26.284224","CLASSIFICATION_TYPE":"U","MEAN_MOTION":13.50792315,"ECCENTRICITY":0.0010081,"INCLINATION":88.9835,"RA_OF_ASC_NODE":58.9577,"ARG_OF_PERICENTER":155.7149,"MEAN_ANOMALY":204.4479,"EPHEMERIS_TYPE":0,"NORAD_CAT_ID":61565,"ELEMENT_SET_NO":999,"REV_AT_EPOCH":9698,"BSTAR":0.00017225,"MEAN_MOTION_DOT":0.00000123,"MEAN_MOTION_DDOT":0}]}
