QIANFAN-17              
1 60395U 24140S   26196.22084124  .00000100  00000+0  13568-3 0  9997
2 60395  88.9745 277.2041 0012865 310.9587  49.0450 13.51016233 97096
QIANFAN-18              
1 60396U 24140T   26196.20024301  .00000093  00000+0  12509-3 0  9992
2 60396  88.9739 276.7256 0011934 290.7491  69.2381 13.51015706 96480
QIANFAN-19              
1 61552U 24185A   26196.15671205  .00000235  00000+0  11534-3 0  9996
2 61552  88.9813  53.3732 0006447 356.2754   3.8384 14.14494030 99974
QIANFAN-20              
1 61553U 24185B   26196.16635316  .00000238  00000+0  12943-3 0  9999
2 61553  88.9809  53.9086 0006869  38.1727 321.9942 14.09035864 99684
QIANFAN-21              
1 61554U 24185C   26196.11914206  .00000308  00000+0  13081-3 0  9995
2 61554  88.9730  51.8726 0011947  35.3159 324.8822 14.22881152100458
QIANFAN-22              
1 61555U 24185D   26196.15269725  .00000174  00000+0  13859-3 0  9993
2 61555  88.9794  55.7570 0008491  66.2508 293.9552 13.86407528 98643
QIANFAN-23              
1 61556U 24185E   26196.11048926  .00000229  00000+0  10811-3 0  9994
2 61556  88.9806  53.0874 0007417   3.8274 356.2969 14.16518296100097
QIANFAN-24              
1 61557U 24185F   26196.15090831  .00000319  00000+0  13236-3 0  9995
2 61557  88.9788  52.1393 0008190 332.3812  27.6944 14.24098156100538
QIANFAN-25              
1 61558U 24185G   26196.15150573  .00000202  00000+0  11478-3 0  9993
2 61558  88.9803  53.9264 0012742  33.6577 326.5412 14.06095326 99635
QIANFAN-26              
1 61559U 24185H   26196.12265608  .00000156  00000+0  14241-3 0  9996
2 61559  88.9801  56.6129 0007903  83.6630 276.5436 13.77923693 98196
QIANFAN-27              
1 61560U 24185J   26196.11215712  .00000299  00000+0  11577-3 0  9995
2 61560  88.9800  51.8158 0005674 321.9357  38.1435 14.27556780100744
QIANFAN-28              
1 61561U 24185K   26196.11617784  .00000340  00000+0  13015-3 0  9997
2 61561  88.9817  51.8287 0005470 319.7707  40.3082 14.28418635100777
QIANFAN-29              
1 61562U 24185L   26196.14420737  .00000106  00000+0  14497-3 0  9996
2 61562  88.9775  59.1510 0010866 141.2607 218.9326 13.51078682 96747
QIANFAN-30              
1 61563U 24185M   26196.13331889  .00000044  00000+0  50604-4 0  9997
2 61563  88.9796  58.7595 0008928 126.5440 233.6534 13.50061514 96993
QIANFAN-31              
1 61564U 24185N   26196.16849150  .00000123  00000+0  15347-3 0  9998
2 61564  88.9779  58.2174 0008731 114.8235 245.3829 13.58046731 97267
QIANFAN-32              
1 61565U 24185P   26196.13224866  .00000123  00000+0  17225-3 0  9994
2 61565  88.9835  58.9577 0010081 155.7149 204.4479 13.50792315 96987
